STARLINK-36900          
1 67973U 26038N   26086.03745013  .00071854  00000+0  13089-2 0  9993
2 67973  97.2815  96.8353 0001748 122.2002 237.9419 15.49230703  5890
STARLINK-36901          
1 67974U 26038P   26086.16670139 -.00034264  00000+0 -10636-2 0  9995
2 67974  97.2847  97.0447 0001909 113.3155  69.1404 15.33450014  6018
STARLINK-36883          
1 67975U 26038Q   26086.16670139 -.02244963  00000+0 -64815-1 0  9994
2 67975  97.2847  97.0789 0002018  86.8343 159.4683 15.39069818  6019
STARLINK-36880          
1 67976U 26038R   26085.98367478  .00066927  00000+0  12193-2 0  9994
2 67976  97.2826  96.7539 0000963  53.5953 306.5387 15.49247663  5888
STARLINK-36904          
1 67977U 26038S   26086.16670139 -.02248144  00000+0 -65752-1 0  9992
2 67977  97.2838  97.0730 0001923  77.7348 154.6747 15.38681655  6011
STARLINK-36364          
1 67978U 26038T   26086.16670139 -.00031196  00000+0 -96871-3 0  9996
2 67978  97.2845  97.0907 0001172  86.5215 201.0387 15.33420622  6010
STARLINK-36359          
1 67979U 26038U   26086.16670139 -.00039058  00000+0 -11817-2 0  9998
2 67979  97.2850  97.0458 0001069 103.4249  88.5027 15.34293728  6014
STARLINK-36882          
1 67980U 26038V   26086.16670139 -.02862726  00000+0 -86094-1 0  9996
2 67980  97.2849  97.0635 0001745  80.4363 148.1643 15.38123696  6010
STARLINK-36874          
1 67981U 26038W   26086.16670139 -.00042546  00000+0 -13230-2 0  9998
2 67981  97.2847  97.0951 0001280  91.4882 211.0691 15.33444394  6011
STARLINK-36879          
1 67982U 26038X   26086.03231868  .00058190  00000+0  10626-2 0  9993
2 67982  97.2823  96.8415 0000684  10.9198 349.2068 15.49218680  5892
STARLINK-36867          
1 67983U 26038Y   26086.01904138  .00070065  00000+0  12768-2 0  9993
2 67983  97.2817  96.8599 0000844  66.7898 293.3442 15.49226282  5895
STARLINK-36266          
1 67984U 26038Z   26086.16670139 -.00035680  00000+0 -11084-2 0  9997
2 67984  97.2843  97.1054 0001043  74.6678 257.8622 15.33436276  5985
