CCSDS_OMM_VERS = 2.0
CREATION_DATE  = 
ORIGINATOR     = 

OBJECT_NAME    = STARLINK-36900
OBJECT_ID      = 2026-038N
CENTER_NAME    = EARTH
REF_FRAME      = TEME
TIME_SYSTEM    = UTC
MEAN_ELEMENT_THEORY = SGP/SGP4

EPOCH          = 2026-03-27T00:53:55.691232
MEAN_MOTION    = 15.49230703
ECCENTRICITY   = .0001748
INCLINATION    = 97.2815
RA_OF_ASC_NODE = 96.8353
ARG_OF_PERICENTER = 122.2002
MEAN_ANOMALY   = 237.9419

EPHEMERIS_TYPE = 0
CLASSIFICATION_TYPE = U
NORAD_CAT_ID   = 67973
ELEMENT_SET_NO = 999
REV_AT_EPOCH   = 589
BSTAR          = .13089E-2
MEAN_MOTION_DOT = .71854E-3
MEAN_MOTION_DDOT = 0

CCSDS_OMM_VERS = 2.0
CREATION_DATE  = 
ORIGINATOR     = 

OBJECT_NAME    = STARLINK-36901
OBJECT_ID      = 2026-038P
CENTER_NAME    = EARTH
REF_FRAME      = TEME
TIME_SYSTEM    = UTC
MEAN_ELEMENT_THEORY = SGP/SGP4

EPOCH          = 2026-03-27T04:00:03.000096
MEAN_MOTION    = 15.33450014
ECCENTRICITY   = .0001909
INCLINATION    = 97.2847
RA_OF_ASC_NODE = 97.0447
ARG_OF_PERICENTER = 113.3155
MEAN_ANOMALY   = 69.1404

EPHEMERIS_TYPE = 0
CLASSIFICATION_TYPE = U
NORAD_CAT_ID   = 67974
ELEMENT_SET_NO = 999
REV_AT_EPOCH   = 601
BSTAR          = -.10636E-2
MEAN_MOTION_DOT = -.34264E-3
MEAN_MOTION_DDOT = 0

CCSDS_OMM_VERS = 2.0
CREATION_DATE  = 
ORIGINATOR     = 

OBJECT_NAME    = STARLINK-36883
OBJECT_ID      = 2026-038Q
CENTER_NAME    = EARTH
REF_FRAME      = TEME
TIME_SYSTEM    = UTC
MEAN_ELEMENT_THEORY = SGP/SGP4

EPOCH          = 2026-03-27T04:00:03.000096
MEAN_MOTION    = 15.39069818
ECCENTRICITY   = .0002018
INCLINATION    = 97.2847
RA_OF_ASC_NODE = 97.0789
ARG_OF_PERICENTER = 86.8343
MEAN_ANOMALY   = 159.4683

EPHEMERIS_TYPE = 0
CLASSIFICATION_TYPE = U
NORAD_CAT_ID   = 67975
ELEMENT_SET_NO = 999
REV_AT_EPOCH   = 601
BSTAR          = -.64815E-1
MEAN_MOTION_DOT = -.2244963E-1
MEAN_MOTION_DDOT = 0

CCSDS_OMM_VERS = 2.0
CREATION_DATE  = 
ORIGINATOR     = 

OBJECT_NAME    = STARLINK-36880
OBJECT_ID      = 2026-038R
CENTER_NAME    = EARTH
REF_FRAME      = TEME
TIME_SYSTEM    = UTC
MEAN_ELEMENT_THEORY = SGP/SGP4

EPOCH          = 2026-03-26T23:36:29.500992
MEAN_MOTION    = 15.49247663
ECCENTRICITY   = .0000963
INCLINATION    = 97.2826
RA_OF_ASC_NODE = 96.7539
ARG_OF_PERICENTER = 53.5953
MEAN_ANOMALY   = 306.5387

EPHEMERIS_TYPE = 0
CLASSIFICATION_TYPE = U
NORAD_CAT_ID   = 67976
ELEMENT_SET_NO = 999
REV_AT_EPOCH   = 588
BSTAR          = .12193E-2
MEAN_MOTION_DOT = .66927E-3
MEAN_MOTION_DDOT = 0

CCSDS_OMM_VERS = 2.0
CREATION_DATE  = 
ORIGINATOR     = 

OBJECT_NAME    = STARLINK-36904
OBJECT_ID      = 2026-038S
CENTER_NAME    = EARTH
REF_FRAME      = TEME
TIME_SYSTEM    = UTC
MEAN_ELEMENT_THEORY = SGP/SGP4

EPOCH          = 2026-03-27T04:00:03.000096
MEAN_MOTION    = 15.38681655
ECCENTRICITY   = .0001923
INCLINATION    = 97.2838
RA_OF_ASC_NODE = 97.0730
ARG_OF_PERICENTER = 77.7348
MEAN_ANOMALY   = 154.6747

EPHEMERIS_TYPE = 0
CLASSIFICATION_TYPE = U
NORAD_CAT_ID   = 67977
ELEMENT_SET_NO = 999
REV_AT_EPOCH   = 601
BSTAR          = -.65752E-1
MEAN_MOTION_DOT = -.2248144E-1
MEAN_MOTION_DDOT = 0

CCSDS_OMM_VERS = 2.0
CREATION_DATE  = 
ORIGINATOR     = 

OBJECT_NAME    = STARLINK-36364
OBJECT_ID      = 2026-038T
CENTER_NAME    = EARTH
REF_FRAME      = TEME
TIME_SYSTEM    = UTC
MEAN_ELEMENT_THEORY = SGP/SGP4

EPOCH          = 2026-03-27T04:00:03.000096
MEAN_MOTION    = 15.33420622
ECCENTRICITY   = .0001172
INCLINATION    = 97.2845
RA_OF_ASC_NODE = 97.0907
ARG_OF_PERICENTER = 86.5215
MEAN_ANOMALY   = 201.0387

EPHEMERIS_TYPE = 0
CLASSIFICATION_TYPE = U
NORAD_CAT_ID   = 67978
ELEMENT_SET_NO = 999
REV_AT_EPOCH   = 601
BSTAR          = -.96871E-3
MEAN_MOTION_DOT = -.31196E-3
MEAN_MOTION_DDOT = 0

CCSDS_OMM_VERS = 2.0
CREATION_DATE  = 
ORIGINATOR     = 

OBJECT_NAME    = STARLINK-36359
OBJECT_ID      = 2026-038U
CENTER_NAME    = EARTH
REF_FRAME      = TEME
TIME_SYSTEM    = UTC
MEAN_ELEMENT_THEORY = SGP/SGP4

EPOCH          = 2026-03-27T04:00:03.000096
MEAN_MOTION    = 15.34293728
ECCENTRICITY   = .0001069
INCLINATION    = 97.2850
RA_OF_ASC_NODE = 97.0458
ARG_OF_PERICENTER = 103.4249
MEAN_ANOMALY   = 88.5027

EPHEMERIS_TYPE = 0
CLASSIFICATION_TYPE = U
NORAD_CAT_ID   = 67979
ELEMENT_SET_NO = 999
REV_AT_EPOCH   = 601
BSTAR          = -.11817E-2
MEAN_MOTION_DOT = -.39058E-3
MEAN_MOTION_DDOT = 0

CCSDS_OMM_VERS = 2.0
CREATION_DATE  = 
ORIGINATOR     = 

OBJECT_NAME    = STARLINK-36882
OBJECT_ID      = 2026-038V
CENTER_NAME    = EARTH
REF_FRAME      = TEME
TIME_SYSTEM    = UTC
MEAN_ELEMENT_THEORY = SGP/SGP4

EPOCH          = 2026-03-27T04:00:03.000096
MEAN_MOTION    = 15.38123696
ECCENTRICITY   = .0001745
INCLINATION    = 97.2849
RA_OF_ASC_NODE = 97.0635
ARG_OF_PERICENTER = 80.4363
MEAN_ANOMALY   = 148.1643

EPHEMERIS_TYPE = 0
CLASSIFICATION_TYPE = U
NORAD_CAT_ID   = 67980
ELEMENT_SET_NO = 999
REV_AT_EPOCH   = 601
BSTAR          = -.86094E-1
MEAN_MOTION_DOT = -.2862726E-1
MEAN_MOTION_DDOT = 0

CCSDS_OMM_VERS = 2.0
CREATION_DATE  = 
ORIGINATOR     = 

OBJECT_NAME    = STARLINK-36874
OBJECT_ID      = 2026-038W
CENTER_NAME    = EARTH
REF_FRAME      = TEME
TIME_SYSTEM    = UTC
MEAN_ELEMENT_THEORY = SGP/SGP4

EPOCH          = 2026-03-27T04:00:03.000096
MEAN_MOTION    = 15.33444394
ECCENTRICITY   = .000128
INCLINATION    = 97.2847
RA_OF_ASC_NODE = 97.0951
ARG_OF_PERICENTER = 91.4882
MEAN_ANOMALY   = 211.0691

EPHEMERIS_TYPE = 0
CLASSIFICATION_TYPE = U
NORAD_CAT_ID   = 67981
ELEMENT_SET_NO = 999
REV_AT_EPOCH   = 601
BSTAR          = -.1323E-2
MEAN_MOTION_DOT = -.42546E-3
MEAN_MOTION_DDOT = 0

CCSDS_OMM_VERS = 2.0
CREATION_DATE  = 
ORIGINATOR     = 

OBJECT_NAME    = STARLINK-36879
OBJECT_ID      = 2026-038X
CENTER_NAME    = EARTH
REF_FRAME      = TEME
TIME_SYSTEM    = UTC
MEAN_ELEMENT_THEORY = SGP/SGP4

EPOCH          = 2026-03-27T00:46:32.333952
MEAN_MOTION    = 15.49218680
ECCENTRICITY   = .0000684
INCLINATION    = 97.2823
RA_OF_ASC_NODE = 96.8415
ARG_OF_PERICENTER = 10.9198
MEAN_ANOMALY   = 349.2068

EPHEMERIS_TYPE = 0
CLASSIFICATION_TYPE = U
NORAD_CAT_ID   = 67982
ELEMENT_SET_NO = 999
REV_AT_EPOCH   = 589
BSTAR          = .10626E-2
MEAN_MOTION_DOT = .5819E-3
MEAN_MOTION_DDOT = 0

CCSDS_OMM_VERS = 2.0
CREATION_DATE  = 
ORIGINATOR     = 

OBJECT_NAME    = STARLINK-36867
OBJECT_ID      = 2026-038Y
CENTER_NAME    = EARTH
REF_FRAME      = TEME
TIME_SYSTEM    = UTC
MEAN_ELEMENT_THEORY = SGP/SGP4

EPOCH          = 2026-03-27T00:27:25.175232
MEAN_MOTION    = 15.49226282
ECCENTRICITY   = .0000844
INCLINATION    = 97.2817
RA_OF_ASC_NODE = 96.8599
ARG_OF_PERICENTER = 66.7898
MEAN_ANOMALY   = 293.3442

EPHEMERIS_TYPE = 0
CLASSIFICATION_TYPE = U
NORAD_CAT_ID   = 67983
ELEMENT_SET_NO = 999
REV_AT_EPOCH   = 589
BSTAR          = .12768E-2
MEAN_MOTION_DOT = .70065E-3
MEAN_MOTION_DDOT = 0

CCSDS_OMM_VERS = 2.0
CREATION_DATE  = 
ORIGINATOR     = 

OBJECT_NAME    = STARLINK-36266
OBJECT_ID      = 2026-038Z
CENTER_NAME    = EARTH
REF_FRAME      = TEME
TIME_SYSTEM    = UTC
MEAN_ELEMENT_THEORY = SGP/SGP4

EPOCH          = 2026-03-27T04:00:03.000096
MEAN_MOTION    = 15.33436276
ECCENTRICITY   = .0001043
INCLINATION    = 97.2843
RA_OF_ASC_NODE = 97.1054
ARG_OF_PERICENTER = 74.6678
MEAN_ANOMALY   = 257.8622

EPHEMERIS_TYPE = 0
CLASSIFICATION_TYPE = U
NORAD_CAT_ID   = 67984
ELEMENT_SET_NO = 999
REV_AT_EPOCH   = 598
BSTAR          = -.11084E-2
MEAN_MOTION_DOT = -.3568E-3
MEAN_MOTION_DDOT = 0

